{
    "links": {
        "self": "http://www.neowsapp.com/rest/v1/neo/3676117?api_key=iIulBulltgU6a56xZRHN4H3l9WmuAYTsLGpBGhQ2"
    },
    "id": "3676117",
    "neo_reference_id": "3676117",
    "name": "(2014 OM207)",
    "designation": "2014 OM207",
    "nasa_jpl_url": "http://ssd.jpl.nasa.gov/sbdb.cgi?sstr=3676117",
    "absolute_magnitude_h": 29.1,
    "estimated_diameter": {
        "kilometers": {
            "estimated_diameter_min": 0.0040230458,
            "estimated_diameter_max": 0.0089958039
        },
        "meters": {
            "estimated_diameter_min": 4.0230457983,
            "estimated_diameter_max": 8.9958038817
        },
        "miles": {
            "estimated_diameter_min": 0.002499804,
            "estimated_diameter_max": 0.0055897317
        },
        "feet": {
            "estimated_diameter_min": 13.198969577,
            "estimated_diameter_max": 29.5137932072
        }
    },
    "is_potentially_hazardous_asteroid": false,
    "close_approach_data": [
        {
            "close_approach_date": "2014-07-25",
            "close_approach_date_full": "2014-Jul-25 06:19",
            "epoch_date_close_approach": 1406269140000,
            "relative_velocity": {
                "kilometers_per_second": "9.3997776492",
                "kilometers_per_hour": "33839.1995371323",
                "miles_per_hour": "21026.3626235031"
            },
            "miss_distance": {
                "astronomical": "0.0044802454",
                "lunar": "1.7428154606",
                "kilometers": "670235.168917298",
                "miles": "416464.8222347924"
            },
            "orbiting_body": "Moon"
        },
        {
            "close_approach_date": "2014-07-25",
            "close_approach_date_full": "2014-Jul-25 06:39",
            "epoch_date_close_approach": 1406270340000,
            "relative_velocity": {
                "kilometers_per_second": "8.4381392145",
                "kilometers_per_hour": "30377.3011722859",
                "miles_per_hour": "18875.2736089684"
            },
            "miss_distance": {
                "astronomical": "0.0018009619",
                "lunar": "0.7005741791",
                "kilometers": "269420.064191153",
                "miles": "167409.8649897914"
            },
            "orbiting_body": "Earth"
        }
    ],
    "orbital_data": {
        "orbit_id": "4",
        "orbit_determination_date": "2017-04-06 08:39:30",
        "first_observation_date": "2014-07-26",
        "last_observation_date": "2014-07-31",
        "data_arc_in_days": 5,
        "observations_used": 8,
        "orbit_uncertainty": "8",
        "minimum_orbit_intersection": ".00124024",
        "jupiter_tisserand_invariant": "3.249",
        "epoch_osculation": "2456867.5",
        "eccentricity": ".5840460340394195",
        "semi_major_axis": "2.430625447289602",
        "inclination": "2.24848630143055",
        "ascending_node_longitude": "122.7782255958449",
        "orbital_period": "1384.125556346162",
        "perihelion_distance": "1.01102829456482",
        "perihelion_argument": "168.627587568712",
        "aphelion_distance": "3.850222600014384",
        "perihelion_time": "2456855.025580654729",
        "mean_anomaly": "3.244496818736896",
        "mean_motion": ".2600920114142925",
        "equinox": "J2000",
        "orbit_class": {
            "orbit_class_type": "APO",
            "orbit_class_description": "Near-Earth asteroid orbits which cross the Earth’s orbit similar to that of 1862 Apollo",
            "orbit_class_range": "a (semi-major axis) > 1.0 AU; q (perihelion) < 1.017 AU"
        }
    },
    "is_sentry_object": false
}